QZS-1R                  
1 49336U 21096A   24280.35263758 -.00000201  00000+0  00000+0 0  9990
2 49336  36.1737  88.8443 0745392 270.0427 278.9762  1.00284594 10804
